     3.00           N                   E                   RINEX VERSION / TYPE
BRD_USR             ESA                 20190112 111717  UTCPGM / RUN BY / DATE
 GAL   3.6000E+01  1.1719E-01  1.0681E-03  0.0000E+00       IONOSPHERIC CORR
GAUT  2.7939677238E-09-1.776356839E-15 518400 2035 GSTB   0 TIME SYSTEM CORR
GPGA  2.1827872843E-09 1.199040867E-14 518400 2035 GSTB   0 TIME SYSTEM CORR
                                                            END OF HEADER
E33 2019 01 12 09 40 00 8.479091338813E-04 1.278976924368E-13 0.000000000000E+00
     2.600000000000E+01 2.440625000000E+01 3.025483166375E-09 2.181818283181E+00
     1.039355993271E-06 3.691340098158E-04 3.602355718613E-06 5.440594522476E+03
     5.532000000000E+05 3.539025783539E-08-8.691430814694E-01 3.911554813385E-08
     9.851604609847E-01 2.780312500000E+02-1.434169556336E+00-5.717023851277E-09
     2.514390448740E-10 2.580000000000E+02 2.035000000000E+03 0.000000000000E+00
     3.120000000000E+00 5.600000000000E+01-8.149072527885E-09 0.000000000000E+00
     5.543500000000E+05 0.000000000000E+00 0.000000000000E+00 0.000000000000E+00